QIANFAN-89              
1 63175U 25046S   25353.69069366  .00000126  00000+0  17664-3 0  9997
2 63175  88.9768 319.3181 0018312 102.7072 257.6127 13.50978317 48343
QIANFAN-90              
1 63176U 25046T   25353.71942964  .00000109  00000+0  15011-3 0  9990
2 63176  88.9768 319.2875 0015271 100.6064 259.6808 13.50978675 48369
QIANFAN-91              
1 66033U 25233A   25353.72366772  .00000048  00000+0  40394-4 0  9996
2 66033  88.9947  61.4227 0017197  25.2078 334.9919 13.69630321  8938
QIANFAN-92              
1 66034U 25233B   25353.77742166  .00000043  00000+0  33612-4 0  9997
2 66034  88.9946  61.4087 0017009  26.0014 334.2000 13.70877082  8947
QIANFAN-93              
1 66035U 25233C   25353.72946495  .00000046  00000+0  37854-4 0  9999
2 66035  88.9954  61.4218 0015538  27.9113 332.2879 13.69957168  8931
QIANFAN-94              
1 66036U 25233D   25353.74610625  .00000053  00000+0  42039-4 0  9994
2 66036  88.9954  61.4062 0015814  23.9063 336.2833 13.75507374  8948
QIANFAN-95              
1 66037U 25233E   25353.61998007  .00000108  00000+0  51506-4 0  9994
2 66037  89.0000  61.2771 0017400  26.8894 333.3189 14.11926408  9009
QIANFAN-96              
1 66038U 25233F   25353.75584620  .00000046  00000+0  36860-4 0  9999
2 66038  88.9954  61.4259 0016497  28.1459 332.0592 13.71015339  8938
